NORAD_CAT_ID,OBJECT_NAME,OBJECT_TYPE,EPOCH,MEAN_MOTION,ECCENTRICITY,INCLINATION,RA_OF_ASC_NODE,ARG_OF_PERICENTER,MEAN_ANOMALY,BSTAR,MEAN_MOTION_DOT,MEAN_MOTION_DDOT,TLE_LINE0,TLE_LINE1,TLE_LINE2,SEMIMAJOR_AXIS,PERIOD,APOGEE,PERIGEE,DECAYED
53590.0,STARLINK-4689,PAYLOAD,2023-02-09 00:16:07,15.08845379,0.0001081,53.2159,253.2002,94.2409,265.8707,0.00050905,7.824e-05,0.0,0 STARLINK-4689,1 53590U 22104C   23040.01119397  .00007824  00000-0  50905-3 0  9994,2 53590  53.2159 253.2002 0001081  94.2409 265.8707 15.08845379 25137,6917.864,95.437,540.477,538.981,0.0
53590.0,STARLINK-4689,PAYLOAD,2023-02-09 17:45:21,15.08841811,0.0001217,53.2153,249.9269,107.6164,252.4962,0.00020928,3.045e-05,0.0,0 STARLINK-4689,1 53590U 22104C   23040.73983601  .00003045  00000-0  20928-3 0  9993,2 53590  53.2153 249.9269 0001217 107.6164 252.4962 15.08841811 25240,6917.875,95.437,540.582,538.898,0.0
53590.0,STARLINK-4689,PAYLOAD,2023-02-09 20:56:08,15.08842229,0.000104,53.2165,249.3356,88.4635,271.6476,0.00025152,3.718e-05,0.0,0 STARLINK-4689,1 53590U 22104C   23040.87231743  .00003718  00000-0  25152-3 0  9992,2 53590  53.2165 249.3356 0001040  88.4635 271.6476 15.08842229 26302,6917.874,95.437,540.458,539.019,0.0
53590.0,STARLINK-4689,PAYLOAD,2023-02-10 00:06:54,15.08847758,9.77e-05,53.2148,248.7382,79.5548,280.5554,0.00037418,5.674e-05,0.0,0 STARLINK-4689,1 53590U 22104C   23041.00479581  .00005674  00000-0  37418-3 0  9993,2 53590  53.2148 248.7382 0000977  79.5548 280.5554 15.08847758 26327,6917.857,95.437,540.398,539.046,0.0
53590.0,STARLINK-4689,PAYLOAD,2023-02-10 20:46:55,15.08839921,0.0001022,53.2156,244.8713,61.0208,299.0886,0.00022645,3.318e-05,0.0,0 STARLINK-4689,1 53590U 22104C   23041.86591777  .00003318  00000-0  22645-3 0  9998,2 53590  53.2156 244.8713 0001022  61.0208 299.0886 15.08839921 26452,6917.881,95.438,540.453,539.039,0.0
53590.0,STARLINK-4689,PAYLOAD,2023-02-11 22:13:05,15.08840681,8.31e-05,53.2159,240.1175,91.5788,268.53,0.00016872,2.399e-05,0.0,0 STARLINK-4689,1 53590U 22104C   23042.92575952  .00002399  00000-0  16872-3 0  9996,2 53590  53.2159 240.1175 0000831  91.5788 268.5300 15.08840681 25573,6917.878,95.438,540.318,539.168,0.0
53590.0,STARLINK-4689,PAYLOAD,2023-02-12 12:31:34,15.08834149,0.0001094,53.2167,237.4433,87.8704,272.2414,8.0021e-05,9.86e-06,0.0,0 STARLINK-4689,1 53590U 22104C   23043.52192588  .00000986  00000-0  80021-4 0  9991,2 53590  53.2167 237.4433 0001094  87.8704 272.2414 15.08834149 25666,6917.898,95.438,540.52,539.006,0.0
53590.0,STARLINK-4689,PAYLOAD,2023-02-13 12:22:21,15.08846579,0.0001035,53.2159,232.9788,86.4512,273.6599,0.00044275,6.767e-05,0.0,0 STARLINK-4689,1 53590U 22104C   23044.51552383  .00006767  00000-0  44275-3 0  9997,2 53590  53.2159 232.9788 0001035  86.4512 273.6599 15.08846579 26858,6917.86,95.437,540.441,539.009,0.0
53590.0,STARLINK-4689,PAYLOAD,2023-02-13 18:43:53,15.08854413,0.000107,53.2157,231.7888,83.4422,276.6691,0.00069307,0.00010764,0.0,0 STARLINK-4689,1 53590U 22104C   23044.78048173  .00010764  00000-0  69307-3 0  9998,2 53590  53.2157 231.7888 0001070  83.4422 276.6691 15.08854413 25851,6917.836,95.437,540.442,538.961,0.0
53590.0,STARLINK-4689,PAYLOAD,2023-02-14 02:40:49,15.08844571,0.000137,53.2162,230.3032,64.4121,295.7012,0.00055018,8.48e-05,0.0,0 STARLINK-4689,1 53590U 22104C   23045.11168344  .00008480  00000-0  55018-3 0  9995,2 53590  53.2162 230.3032 0001370  64.4121 295.7012 15.08844571 25900,6917.866,95.437,540.679,538.784,0.0
53590.0,STARLINK-4689,PAYLOAD,2023-02-14 10:37:44,15.08850905,0.0001201,53.2159,228.8161,80.4971,279.6156,0.00082239,0.00012828,0.0,0 STARLINK-4689,1 53590U 22104C   23045.44288087  .00012828  00000-0  82239-3 0  9994,2 53590  53.2159 228.8161 0001201  80.4971 279.6156 15.08850905 26993,6917.847,95.437,540.543,538.881,0.0
53590.0,STARLINK-4689,PAYLOAD,2023-02-14 20:10:03,15.08861063,0.0001104,53.2162,227.0316,86.6848,273.427,0.00086561,0.00013523,0.0,0 STARLINK-4689,1 53590U 22104C   23045.84031652  .00013523  00000-0  86561-3 0  9997,2 53590  53.2162 227.0316 0001104  86.6848 273.4270 15.08861063 27057,6917.816,95.436,540.445,538.917,0.0
53590.0,STARLINK-4689,PAYLOAD,2023-02-15 02:31:36,15.08838199,0.0001189,53.2163,225.8422,76.0002,284.1122,-0.00013817,-2.486e-05,0.0,0 STARLINK-4689,1 53590U 22104C   23046.10527912 -.00002486  00000-0 -13817-3 0  9998,2 53590  53.2163 225.8422 0001189  76.0002 284.1122 15.08838199 26058,6917.886,95.438,540.573,538.928,0.0
53590.0,STARLINK-4689,PAYLOAD,2023-02-15 13:39:18,15.08848433,0.0001197,53.216,223.7605,73.4182,286.6942,0.00065251,0.00010114,0.0,0 STARLINK-4689,1 53590U 22104C   23046.56895971  .00010114  00000-0  65251-3 0  9995,2 53590  53.2160 223.7605 0001197  73.4182 286.6942 15.08848433 27166,6917.855,95.437,540.548,538.892,0.0
53590.0,STARLINK-4689,PAYLOAD,2023-02-15 21:36:13,15.08854754,0.0001094,53.2162,222.2744,63.7526,296.3578,0.0017853,0.00028251,0.0,0 STARLINK-4689,1 53590U 22104C   23046.90015887  .00028251  00000-0  17853-2 0  9998,2 53590  53.2162 222.2744 0001094  63.7526 296.3578 15.08854754 26172,6917.835,95.437,540.457,538.943,0.0
53590.0,STARLINK-4689,PAYLOAD,2023-02-16 02:22:23,15.08841744,0.0001317,53.2161,221.382,66.6449,293.4682,0.00088274,0.00013789,0.0,0 STARLINK-4689,1 53590U 22104C   23047.09888186  .00013789  00000-0  88274-3 0  9995,2 53590  53.2161 221.3820 0001317  66.6449 293.4682 15.08841744 26203,6917.875,95.437,540.651,538.829,0.0
53590.0,STARLINK-4689,PAYLOAD,2023-02-16 13:30:05,15.08855778,0.0001222,53.2155,219.2998,80.1938,279.9192,0.001192,0.00018742,0.0,0 STARLINK-4689,1 53590U 22104C   23047.56255854  .00018742  00000-0  11920-2 0  9994,2 53590  53.2155 219.2998 0001222  80.1938 279.9192 15.08855778 27317,6917.832,95.437,540.543,538.852,0.0
53590.0,STARLINK-4689,PAYLOAD,2023-02-16 21:27:00,15.08870892,0.000114,53.2161,217.8144,70.119,289.9925,0.0017052,0.00026977,0.0,0 STARLINK-4689,1 53590U 22104C   23047.89375355  .00026977  00000-0  17052-2 0  9990,2 53590  53.2161 217.8144 0001140  70.1190 289.9925 15.08870892 27363,6917.786,95.436,540.44,538.862,0.0
53590.0,STARLINK-4689,PAYLOAD,2023-02-17 02:13:10,15.08833652,0.0001733,53.2162,216.9224,53.6762,306.439,-2.5225e-05,-6.89e-06,0.0,0 STARLINK-4689,1 53590U 22104C   23048.09248073 -.00000689  00000-0 -25225-4 0  9996,2 53590  53.2162 216.9224 0001733  53.6762 306.4390 15.08833652 26354,6917.9,95.438,540.964,538.566,0.0
53590.0,STARLINK-4689,PAYLOAD,2023-02-17 13:20:52,15.08830319,0.0001144,53.2154,214.8392,96.0777,264.0346,0.00015835,2.233e-05,0.0,0 STARLINK-4689,1 53590U 22104C   23048.55615981  .00002233  00000-0  15835-3 0  9993,2 53590  53.2154 214.8392 0001144  96.0777 264.0346 15.08830319 27461,6917.91,95.438,540.566,538.984,0.0
53590.0,STARLINK-4689,PAYLOAD,2023-02-17 21:17:48,15.088365,0.0001085,53.216,213.354,85.1907,274.9209,0.0012064,0.00018962,0.0,0 STARLINK-4689,1 53590U 22104C   23048.88736334  .00018962  00000-0  12064-2 0  9991,2 53590  53.2160 213.3540 0001085  85.1907 274.9209 15.08836500 27517,6917.891,95.438,540.507,539.005,0.0
53590.0,STARLINK-4689,PAYLOAD,2023-02-18 03:39:21,15.0882863,0.0001236,53.2161,212.164,74.0844,286.0285,0.00062978,9.746e-05,0.0,0 STARLINK-4689,1 53590U 22104C   23049.15232724  .00009746  00000-0  62978-3 0  9996,2 53590  53.2161 212.1640 0001236  74.0844 286.0285 15.08828630 26513,6917.915,95.438,540.635,538.925,0.0
53590.0,STARLINK-4689,PAYLOAD,2023-02-18 13:11:40,15.08835909,0.0001098,53.2155,210.3799,83.1657,276.946,0.00086591,0.00013518,0.0,0 STARLINK-4689,1 53590U 22104C   23049.54976892  .00013518  00000-0  86591-3 0  9999,2 53590  53.2155 210.3799 0001098  83.1657 276.9460 15.08835909 27612,6917.893,95.438,540.517,538.998,0.0
53590.0,STARLINK-4689,PAYLOAD,2023-02-19 09:51:40,15.08844596,0.0001146,53.2154,206.5136,84.8463,275.266,0.00078894,0.00012292,0.0,0 STARLINK-4689,1 53590U 22104C   23050.41089000  .00012292  00000-0  78894-3 0  9998,2 53590  53.2154 206.5136 0001146  84.8463 275.2660 15.08844596 26705,6917.866,95.437,540.524,538.939,0.0
53590.0,STARLINK-4689,PAYLOAD,2023-02-19 14:37:50,15.08848106,0.0001114,53.2155,205.622,84.081,276.0309,0.00061436,9.505e-05,0.0,0 STARLINK-4689,1 53590U 22104C   23050.60960873  .00009505  00000-0  61436-3 0  9992,2 53590  53.2155 205.6220 0001114  84.0810 276.0309 15.08848106 27771,6917.856,95.437,540.491,538.95,0.0
53590.0,STARLINK-4689,PAYLOAD,2023-02-20 03:20:55,15.08850951,0.0001089,53.2162,203.2428,85.5956,274.516,0.00058742,9.076e-05,0.0,0 STARLINK-4689,1 53590U 22104C   23051.13952732  .00009076  00000-0  58742-3 0  9995,2 53590  53.2162 203.2428 0001089  85.5956 274.5160 15.08850951 26814,6917.847,95.437,540.465,538.959,0.0
53590.0,STARLINK-4689,PAYLOAD,2023-02-20 12:53:14,15.08846935,0.0001081,53.2161,201.4587,86.9601,273.1515,0.00055535,8.563e-05,0.0,0 STARLINK-4689,1 53590U 22104C   23051.53696880  .00008563  00000-0  55535-3 0  9995,2 53590  53.2161 201.4587 0001081  86.9601 273.1515 15.08846935 27911,6917.859,95.437,540.472,538.976,0.0
53590.0,STARLINK-4689,PAYLOAD,2023-02-20 19:14:46,15.08853799,0.0001206,53.2162,200.2694,84.1188,275.9941,0.00077859,0.0001213,0.0,0 STARLINK-4689,1 53590U 22104C   23051.80192836  .00012130  00000-0  77859-3 0  9995,2 53590  53.2162 200.2694 0001206  84.1188 275.9941 15.08853799 26915,6917.838,95.437,540.538,538.869,0.0
53590.0,STARLINK-4689,PAYLOAD,2023-02-21 09:33:14,15.08847622,0.000161,53.2166,197.5929,88.6845,271.4331,0.00057397,8.86e-05,0.0,0 STARLINK-4689,1 53590U 22104C   23052.39808947  .00008860  00000-0  57397-3 0  9997,2 53590  53.2166 197.5929 0001610  88.6845 271.4331 15.08847622 27009,6917.857,95.437,540.836,538.608,0.0
53590.0,STARLINK-4689,PAYLOAD,2023-02-21 17:30:10,15.08857508,0.0001562,53.2163,196.1071,90.2845,269.8326,0.00066428,0.00010305,0.0,0 STARLINK-4689,1 53590U 22104C   23052.72928495  .00010305  00000-0  66428-3 0  9997,2 53590  53.2163 196.1071 0001562  90.2845 269.8326 15.08857508 28093,6917.827,95.436,540.772,538.611,0.0
